CZ-2C R/B               
1 54039U 22132E   25343.00202345  .00039112  00000+0  58741-3 0  9997
2 54039  97.2947 339.1295 0023484  69.3400 291.0369 15.54463027176254
GSLV R/B                
1 54149U 22138AN  25343.11021502  .00002833  00000+0  24815-3 0  9996
2 54149  87.3826 196.6897 0023889 117.5101 242.8562 14.96100971170387
XRISM                   
1 57800U 23137A   25342.86887918  .00006285  00000+0  36864-3 0  9997
2 57800  31.0004 150.5348 0007687 206.2287 153.7962 15.10278587124049
ACS3                    
1 59588U 24077B   25343.14278059  .00026709  00000+0  22935-1 0  9993
2 59588  97.2717 299.5519 0077956 346.5274  13.3806 13.85214079 81645
SZ-21 MODULE            
1 66515U 25246C   25343.15131325  .00031342  00000+0  34803-3 0  9993
2 66515  41.4773  37.9323 0006280 240.6924 119.3288 15.62218572  3881
